CRE (WAAS/PRN 138)      
1 28868U 05036A   22331.36924293 -.00000066  00000+0  00000+0 0  9996
2 28868   0.9721  92.0673 0000911  98.8614 260.9706  1.00271561 63144
IOR-W (EGNOS/PRN 126)   
1 28899U 05044A   22331.37781800  .00000018  00000+0  00000+0 0  9991
2 28899   3.6299  38.7793 0002690 209.2776  18.1440  1.00270451 62482
QZS-1 (QZSS/PRN 183)    
1 37158U 10045A   22330.31993675 -.00000077  00000+0  00000+0 0  9990
2 37158  42.5075 131.1553 0751885 270.3182 276.7801  1.00267271 44718
GSAT-8 (GAGAN/PRN 127)  
1 37605U 11022A   22330.80219979  .00000096  00000+0  00000+0 0  9995
2 37605   0.0503 116.2760 0008074 139.9923 153.3318  1.00270833 40191
LUCH 5A (SDCM/PRN 140)  
1 37951U 11074B   22330.68452050 -.00000038  00000+0  00000+0 0  9998
2 37951   5.4233  94.6225 0002628 130.3032 253.9342  1.00271263 40174
SES-5 (EGNOS/PRN 136)   
1 38652U 12036A   22331.29440116  .00000043  00000+0  00000+0 0  9999
2 38652   0.0558 295.9217 0001957 300.8409 300.4045  1.00270615 38059
GSAT-10 (GAGAN/PRN 128) 
1 38779U 12051B   22331.09840972 -.00000155  00000+0  00000+0 0  9993
2 38779   0.0982 100.6964 0004107 161.5330 282.2028  1.00270258 37270
LUCH 5B (SDCM/PRN 125)  
1 38977U 12061A   22330.57278159 -.00000126  00000+0  00000+0 0  9996
2 38977   7.6420  61.3742 0003445 128.1980  65.8031  1.00271885 37154
ASTRA 5B (EGNOS/PRN 123)
1 39617U 14011B   22330.82688152  .00000166  00000+0  00000+0 0  9994
2 39617   0.0465 321.1098 0003730 270.4203 163.4248  1.00271530 31649
LUCH 5V (SDCM/PRN 141)  
1 39727U 14023A   22331.02531562 -.00000257  00000+0  00000+0 0  9996
2 39727   1.8873  76.9083 0003148 187.2863 265.5229  1.00266162549497
GSAT-15 (GAGAN/PRN 139) 
1 41028U 15065A   22331.45548196 -.00000250  00000+0  00000+0 0  9991
2 41028   0.0563 108.3799 0001737 109.8948 105.5530  1.00272112 25850
E 117 W B (WAAS/PRN 131)
1 41589U 16038B   22330.60060899  .00000001  00000+0  00000+0 0  9992
2 41589   0.0116 152.2921 0000402 148.6157 223.8434  1.00270683 23656
SES-15 (WAAS/PRN 133)   
1 42709U 17026A   22330.69376656  .00000071  00000+0  00000+0 0  9992
2 42709   0.0190 355.3289 0000949 202.4177 348.4764  1.00274365 21168
QZS-2 (QZSS/PRN 184)    
1 42738U 17028A   22330.67398010 -.00000183  00000+0  00000+0 0  9997
2 42738  41.5060 261.8728 0761794 269.2024 276.4117  1.00291631 20121
QZS-3 (QZSS/PRN 189)    
1 42917U 17048A   22331.39045691 -.00000339  00000+0  00000+0 0  9995
2 42917   0.0623 146.8939 0001376 105.3956  81.6329  1.00272588 19352
QZS-4 (QZSS/PRN 185)    
1 42965U 17062A   22330.57257662 -.00000314  00000+0  00000+0 0  9999
2 42965  40.7277   0.0396 0750601 271.0106 138.3237  1.00261106 18787
GALAXY 30 (WAAS/PRN 135)
1 46114U 20056C   22331.36975994  .00000045  00000+0  00000+0 0  9999
2 46114   0.0164 316.8011 0001865 272.8537 204.7235  1.00271185  8391
